BEESAT-4                
1 41619U 16040W   22309.11153214  .00032738  00000+0  94356-3 0  9998
2 41619  97.1996 356.2096 0007380 343.1059  16.9938 15.35634481342272
CAS-2T & KS-1Q          
1 41847U 16066G   22309.45479070  .00002179  00000+0  33323-3 0  9990
2 41847  98.5361  13.8830 0363528 147.8559 214.5366 14.38866865314625
NAYIF-1 (EO-88)         
1 42017U 17008BX  22309.40179469  .00036179  00000+0  90261-3 0  9992
2 42017  97.2527  13.7807 0005523 100.9242 259.2626 15.40091882318728
ZHUHAI-1 02 (CAS-4B)    
1 42759U 17034B   22309.39243645  .00009722  00000+0  55117-3 0  9995
2 42759  43.0173 275.2873 0008492 100.4123  34.2567 15.13090869297697
ZHUHAI-1 01 (CAS-4A)    
1 42761U 17034D   22309.42223560  .00009832  00000+0  55577-3 0  9998
2 42761  43.0167 273.8072 0008936 104.3545  41.6359 15.13182846297702
MAX VALIER SAT          
1 42778U 17036P   22309.05206824  .00019719  00000+0  68881-3 0  9998
2 42778  97.1899 345.4035 0010232 175.4452 184.6884 15.29556722298375
RADFXSAT (FOX-1B)       
1 43017U 17073E   22309.42904547  .00006182  00000+0  45474-3 0  9997
2 43017  97.6553 197.8002 0246670  85.7896 277.1464 14.82467150267999
FOX-1D (AO-92)          
1 43137U 18004AC  22309.17238986  .00020123  00000+0  64224-3 0  9999
2 43137  97.3566  23.2155 0006538 210.1272 149.9595 15.32505477267872
DIWATA-2B               
1 43678U 18084H   22309.52821116  .00002580  00000+0  25719-3 0  9992
2 43678  97.9910  84.6420 0010301 173.1174 187.0220 14.92451887218895
ES'HAIL 2               
1 43700U 18090A   22307.48272841  .00000136  00000+0  00000+0 0  9990
2 43700   0.0162 263.3744 0001170 328.0437  10.9069  1.00273040 14423
FOX-1CLIFF (AO-95)      
1 43770U 18099N   22309.45021069  .00005158  00000+0  45007-3 0  9998
2 43770  97.6054  12.0787 0014701 157.9047 202.2812 14.97182743214106
ITASAT 1                
1 43786U 18099AE  22309.43367946  .00004057  00000+0  35462-3 0  9991
2 43786  97.6085  13.0528 0015062 151.9573 208.2463 14.97228870214144
JY1SAT (JO-97)          
1 43803U 18099AX  22309.46518448  .00006338  00000+0  54152-3 0  9990
2 43803  97.6053  12.8892 0015597 147.9524 212.2650 14.97900991214171
UWE-4                   
1 43880U 18111E   22309.42824395  .00006546  00000+0  54355-3 0  9993
2 43880  97.6589 213.2480 0010211 193.1011 166.9949 14.99056633210812
NEXUS (FO-99)           
1 43937U 19003F   22309.55248855  .00023201  00000+0  68914-3 0  9995
2 43937  97.1177 337.6291 0018867  15.0892 345.0910 15.34600986211587
PSAT2 (NO-104)          
1 44354U 19036R   22309.19482034  .00132277 -18980-5  76967-3 0  9998
2 44354  28.5202 270.5329 0162109 137.7378 223.5845 15.60693863186500
JAISAT-1                
1 44419U 19038F   22309.40222760  .00016758  00000+0  77879-3 0  9999
2 44419  97.6525 281.0025 0018671  11.8315 348.3354 15.19906162184449
DUCHIFAT-3              
1 44854U 19089C   22309.48514788  .00007829  00000+0  58820-3 0  9994
2 44854  36.9662 343.6820 0008160 285.2794  74.7032 15.02184671159145
CAS-6 (TIANQIN 1)       
1 44881U 19093C   22309.50654996  .00001648  00000+0  21435-3 0  9993
2 44881  97.8833  26.6295 0016359  88.4250 271.8861 14.81910854155663
RS-44 & BREEZE-KM R/B   
1 44909U 19096E   22308.99699413  .00000042  00000+0  12545-3 0  9991
2 44909  82.5177 136.9242 0217284 351.4013   8.3388 12.79716432133487
ORBITAL FACTORY 2 (OF-2)
1 45113U 19071C   22309.38713262  .00067166  00000+0  98009-3 0  9994
2 45113  51.6343  82.0293 0009860 322.5125  37.5178 15.54990158155228
HUSKYSAT-1 (HO-107)     
1 45119U 19071J   22309.52213420  .00055930  00000+0  88971-3 0  9990
2 45119  51.6349  82.8953 0009647 320.4756  39.5530 15.52695465155215
BY70-2                  
1 45857U 20042B   22309.53433713  .00016981  00000+0  21496-2 0  9990
2 45857  97.9474  25.1290 0009483  25.3400 334.8257 14.81829849126339
SALSAT                  
1 46495U 20068K   22309.40031755  .00005091  00000+0  36005-3 0  9996
2 46495  97.7418 250.8803 0016776 154.9838 205.2205 15.05216636115386
BY70-3                  
1 46839U 20079N   22309.56614258  .00069138  00000+0  12285-2 0  9997
2 46839  97.1835  20.3123 0005287 171.9308 295.5017 15.49939241112030
RADFXSAT-2 (AO-109)     
1 47311U 21002C   22309.24190444  .00016675  00000+0  60291-3 0  9990
2 47311  60.6841 191.3864 0037044  65.0124 295.4805 15.27989016 99954
UVSQ-SAT                
1 47438U 21006AB  22309.16009719  .00011467  00000+0  57366-3 0  9992
2 47438  97.4213   5.2952 0012481 140.8601 219.3537 15.17513616 98602
DIY-1 (ARDUIQUBE)       
1 47963U 21022AH  22309.17709640  .00038473  00000+0  18378-2 0  9999
2 47963  97.5180 209.2076 0016454  18.1155 342.0662 15.18804455 88266
XW-3 (CAS-9)            
1 50466U 21131B   22309.50943409  .00000541  00000+0  19131-3 0  9996
2 50466  98.5715  26.6301 0005647  92.6071 267.5763 14.38567031 45196
TEVEL-3                 
1 50988U 22002E   22309.55474132  .00016799  00000+0  86237-3 0  9993
2 50988  97.4665  14.2337 0007891 297.0511 170.4143 15.16559356 44788
TEVEL-8                 
1 50989U 22002F   22309.50197405  .00016573  00000+0  85223-3 0  9998
2 50989  97.4683  14.2153 0007930 296.9142 187.8779 15.16502236 44778
TEVEL-5                 
1 50998U 22002Q   22309.46706666  .00017865  00000+0  90275-3 0  9996
2 50998  97.4664  14.3277 0009248 290.1224 197.3390 15.17090328 44787
TEVEL-6                 
1 50999U 22002R   22309.46606072  .00017975  00000+0  90813-3 0  9997
2 50999  97.4659  14.3249 0009164 289.7315 196.5714 15.17096689 44780
TEVEL-1                 
1 51013U 22002AF  22309.49676932  .00017284  00000+0  88787-3 0  9990
2 51013  97.4658  14.1456 0007855 297.1130 188.6807 15.16529696 44770
TEVEL-7                 
1 51062U 22002CG  22309.43856499  .00016650  00000+0  85628-3 0  9993
2 51062  97.4682  14.1376 0007894 297.2064 190.6791 15.16496831 44760
TEVEL-4                 
1 51063U 22002CH  22309.50539655  .00016703  00000+0  85933-3 0  9992
2 51063  97.4676  14.1975 0007811 296.4164 188.3956 15.16484640 44773
TEVEL-2                 
1 51069U 22002CP  22309.55639476  .00016702  00000+0  85761-3 0  9993
2 51069  97.4661  14.2170 0007733 295.6761 171.7899 15.16553324 44787
GREENCUBE               
1 53106U 22080B   22309.08217466 -.00000003  00000+0  00000+0 0  9999
2 53106  70.1752  37.5766 0008861 233.4948 126.4895  6.42557507  7350
YUZGU 9 (RS3S)          
1 53308U 98067TT  22309.50623818  .00109412  00000+0  11861-2 0  9993
2 53308  51.6386 352.7165 0007844  30.8896 329.2558 15.62656529 16699
YUZGU 7 (RS1S)          
1 53309U 98067TU  22309.49472090  .00110749  00000+0  11798-2 0  9990
2 53309  51.6381 352.6353 0008080  35.8790 324.2746 15.63095979 16640
YUZGU 11 (RS5S)         
1 53310U 98067TV  22309.50526057  .00108430  00000+0  11746-2 0  9994
2 53310  51.6385 352.7103 0007736  35.5219 324.6289 15.62680532 16673
YUZGU 12 (RS6S)         
1 53311U 98067TW  22309.54604378  .00122645  00000+0  12865-2 0  9999
2 53311  51.6384 352.2271 0008019  28.0666 332.0760 15.63441575 16706
TSIOLKOVSKY-RYAZAN 1 (*)
1 53312U 98067TX  22309.49305302  .00106410  00000+0  11375-2 0  9996
2 53312  51.6390 352.6292 0008095  38.1490 322.0076 15.63026163 16635
TSIOLKOVSKY-RYAZAN 2 (*)
1 53313U 98067TY  22309.49126982  .00112259  00000+0  11988-2 0  9990
2 53313  51.6389 352.6173 0007580  36.9026 323.2489 15.63032010 16685
YUZGU 10 (RS4S)         
1 53321U 98067TZ  22309.50187297  .00110230  00000+0  11839-2 0  9999
2 53321  51.6384 352.6875 0007934  33.4300 326.7194 15.62890704 16680
RS29S (SXC3-2110 CYCLO*)
1 53373U 22096D   22309.56259197  .00021667  00000+0  83150-3 0  9991
2 53373  97.4286 210.4191 0001455 124.1341 335.8469 15.26490841 13459
RS32S (SXC3-212 MONITO*)
1 53374U 22096E   22309.55713832  .00021751  00000+0  83216-3 0  9999
2 53374  97.4275 210.4252 0001730 126.5534 338.6233 15.26591427 13454
RS34S (SXC3-218 KUZBAS*)
1 53375U 22096F   22309.56553333  .00018688  00000+0  72224-3 0  9991
2 53375  97.4273 210.4233 0001707 133.5833 346.7707 15.26286819 13458
RS23S (SXC3-21 UTMN)    
1 53376U 22096G   22309.56035944  .00019020  00000+0  73391-3 0  9992
2 53376  97.4282 210.4224 0001662 125.9295 336.5900 15.26336233 13454
RS28S (SXC3-214 MIET-A*)
1 53377U 22096H   22309.55915052  .00017906  00000+0  69140-3 0  9997
2 53377  97.4286 210.4254 0001650 130.5056 332.8811 15.26326276 13452
RS26S (KAI-1)           
1 53378U 22096J   22309.56418090  .00015948  00000+0  61891-3 0  9998
2 53378  97.4273 210.4246 0001818 125.0795 355.4473 15.26181667 13453
RS19S (SXC3-219 ISOI)   
1 53381U 22096M   22309.53276906  .00018716  00000+0  71143-3 0  9994
2 53381  97.4279 210.4580 0005792 123.7371 338.8040 15.26824396 13452
RS21S (CUBESX-HSE-2)    
1 53383U 22096P   22309.53438748  .00019665  00000+0  74668-3 0  9999
2 53383  97.4287 210.4668 0005982 124.2179   0.4396 15.26850181 13450
RS30S (SXC3-217 SIREN)  
1 53384U 22096Q   22309.53136164  .00017032  00000+0  64907-3 0  9998
2 53384  97.4271 210.4608 0006007 124.4890 339.9029 15.26758076 13452
RS20S (GEOSCAN-EDELVEIS)
1 53385U 22096R   22309.57214281  .00022796  00000+0  84950-3 0  9993
2 53385  97.4272 210.5457 0006322 121.0202 314.7531 15.27436854 13498
RS33S (SXC3-215 VIZARD) 
1 53386U 22096S   22309.55880880  .00028145  00000+0  10269-2 0  9991
2 53386  97.4273 210.5817 0007297 123.4199 357.8642 15.28084953 13483
